IRIDIUM 166             
1 43570U 18061B   24048.04933554  .00000049  00000+0  10555-4 0  9998
2 43570  86.3931  52.4292 0002026  98.6313 261.5112 14.34218123291408
IRIDIUM 158             
1 43571U 18061C   24047.94785495  .00000045  00000+0  90132-5 0  9992
2 43571  86.3931  52.4805 0002332  94.3659 265.7804 14.34217245291357
IRIDIUM 165             
1 43572U 18061D   24048.11276119  .00000045  00000+0  90550-5 0  9995
2 43572  86.3933  52.4419 0002370  95.9168 264.2298 14.34217623291402
IRIDIUM 155             
1 43573U 18061E   24048.07470203  .00000055  00000+0  12476-4 0  9992
2 43573  86.3929  52.3689 0001958  89.0983 271.0437 14.34216190291371
IRIDIUM 154             
1 43574U 18061F   24047.91613882 -.00000014  00000+0 -11907-4 0  9992
2 43574  86.3926  52.5273 0002237  85.0377 275.1074 14.34218461291391
IRIDIUM 163             
1 43575U 18061G   24048.10641879  .00000086  00000+0  23667-4 0  9995
2 43575  86.3930  52.3893 0002233  86.7828 273.3623 14.34218886291399
IRIDIUM 156             
1 43576U 18061H   24047.94150691  .00000063  00000+0  15511-4 0  9998
2 43576  86.3930  52.4645 0002177  95.2438 264.9006 14.34216083291360
IRIDIUM 164             
1 43577U 18061J   24047.92248153  .00000127  00000+0  38306-4 0  9996
2 43577  86.3931  52.4997 0002392  91.9776 268.1694 14.34218261291403
